[{"OBJECT_NAME":"STARLINK-36882","OBJECT_ID":"2026-038V","EPOCH":"2026-03-12T20:00:01.999008","MEAN_MOTION":15.79788342,"ECCENTRICITY":0.0001375,"INCLINATION":97.2722,"RA_OF_ASC_NODE":82.3352,"ARG_OF_PERICENTER":74.5883,"MEAN_ANOMALY":325.7665,"EPHEMERIS_TYPE":0,"CLASSIFICATION_TYPE":"U","NORAD_CAT_ID":67980,"ELEMENT_SET_NO":999,"REV_AT_EPOCH":370,"BSTAR":-0.01465,"MEAN_MOTION_DOT":-0.02325258,"MEAN_MOTION_DDOT":0},{"OBJECT_NAME":"STARLINK-36874","OBJECT_ID":"2026-038W","EPOCH":"2026-03-12T20:00:01.999008","MEAN_MOTION":15.80204653,"ECCENTRICITY":0.00017,"INCLINATION":97.271,"RA_OF_ASC_NODE":82.3403,"ARG_OF_PERICENTER":73.1384,"MEAN_ANOMALY":339.759,"EPHEMERIS_TYPE":0,"CLASSIFICATION_TYPE":"U","NORAD_CAT_ID":67981,"ELEMENT_SET_NO":999,"REV_AT_EPOCH":370,"BSTAR":-0.014263,"MEAN_MOTION_DOT":-0.02310247,"MEAN_MOTION_DDOT":0},{"OBJECT_NAME":"STARLINK-36879","OBJECT_ID":"2026-038X","EPOCH":"2026-03-12T20:00:01.999008","MEAN_MOTION":15.80605477,"ECCENTRICITY":0.0001686,"INCLINATION":97.2704,"RA_OF_ASC_NODE":82.3426,"ARG_OF_PERICENTER":63.2653,"MEAN_ANOMALY":356.1586,"EPHEMERIS_TYPE":0,"CLASSIFICATION_TYPE":"U","NORAD_CAT_ID":67982,"ELEMENT_SET_NO":999,"REV_AT_EPOCH":370,"BSTAR":-0.014048,"MEAN_MOTION_DOT":-0.02316904,"MEAN_MOTION_DDOT":0},{"OBJECT_NAME":"STARLINK-36867","OBJECT_ID":"2026-038Y","EPOCH":"2026-03-12T20:00:01.999008","MEAN_MOTION":15.81208501,"ECCENTRICITY":0.000131,"INCLINATION":97.269,"RA_OF_ASC_NODE":82.348,"ARG_OF_PERICENTER":77.2419,"MEAN_ANOMALY":355.3026,"EPHEMERIS_TYPE":0,"CLASSIFICATION_TYPE":"U","NORAD_CAT_ID":67983,"ELEMENT_SET_NO":999,"REV_AT_EPOCH":370,"BSTAR":-0.012666,"MEAN_MOTION_DOT":-0.02121414,"MEAN_MOTION_DDOT":0},{"OBJECT_NAME":"STARLINK-36266","OBJECT_ID":"2026-038Z","EPOCH":"2026-03-12T20:00:01.999008","MEAN_MOTION":15.80796476,"ECCENTRICITY":0.0001345,"INCLINATION":97.2699,"RA_OF_ASC_NODE":82.3458,"ARG_OF_PERICENTER":89.3909,"MEAN_ANOMALY":337.2732,"EPHEMERIS_TYPE":0,"CLASSIFICATION_TYPE":"U","NORAD_CAT_ID":67984,"ELEMENT_SET_NO":999,"REV_AT_EPOCH":367,"BSTAR":-0.013896,"MEAN_MOTION_DOT":-0.02312418,"MEAN_MOTION_DDOT":0},{"OBJECT_NAME":"STARLINK-36802","OBJECT_ID":"2026-038AA","EPOCH":"2026-03-12T20:00:01.999008","MEAN_MOTION":15.81270435,"ECCENTRICITY":0.0001365,"INCLINATION":97.2686,"RA_OF_ASC_NODE":82.3497,"ARG_OF_PERICENTER":55.4227,"MEAN_ANOMALY":22.5241,"EPHEMERIS_TYPE":0,"CLASSIFICATION_TYPE":"U","NORAD_CAT_ID":67985,"ELEMENT_SET_NO":999,"REV_AT_EPOCH":370,"BSTAR":-0.011956,"MEAN_MOTION_DOT":-0.02024388,"MEAN_MOTION_DDOT":0},{"OBJECT_NAME":"STARLINK-36535","OBJECT_ID":"2026-039A","EPOCH":"2026-03-12T20:00:01.999008","MEAN_MOTION":15.81872244,"ECCENTRICITY":0.0002249,"INCLINATION":42.9992,"RA_OF_ASC_NODE":35.6721,"ARG_OF_PERICENTER":249.9442,"MEAN_ANOMALY":81.1652,"EPHEMERIS_TYPE":0,"CLASSIFICATION_TYPE":"U","NORAD_CAT_ID":67986,"ELEMENT_SET_NO":999,"REV_AT_EPOCH":338,"BSTAR":0.00132,"MEAN_MOTION_DOT":0.00284846,"MEAN_MOTION_DDOT":0},{"OBJECT_NAME":"STARLINK-36744","OBJECT_ID":"2026-039B","EPOCH":"2026-03-12T20:00:01.999008","MEAN_MOTION":15.81886433,"ECCENTRICITY":0.0002328,"INCLINATION":42.9993,"RA_OF_ASC_NODE":35.6608,"ARG_OF_PERICENTER":225.6079,"MEAN_ANOMALY":109.7799,"EPHEMERIS_TYPE":0,"CLASSIFICATION_TYPE":"U","NORAD_CAT_ID":67987,"ELEMENT_SET_NO":999,"REV_AT_EPOCH":338,"BSTAR":0.0011614,"MEAN_MOTION_DOT":0.00249702,"MEAN_MOTION_DDOT":0},{"OBJECT_NAME":"STARLINK-36734","OBJECT_ID":"2026-039C","EPOCH":"2026-03-12T20:00:01.999008","MEAN_MOTION":15.72628614,"ECCENTRICITY":0.0001439,"INCLINATION":42.9991,"RA_OF_ASC_NODE":35.7443,"ARG_OF_PERICENTER":254.5235,"MEAN_ANOMALY":47.2464,"EPHEMERIS_TYPE":0,"CLASSIFICATION_TYPE":"U","NORAD_CAT_ID":67988,"ELEMENT_SET_NO":999,"REV_AT_EPOCH":338,"BSTAR":-0.015582,"MEAN_MOTION_DOT":-0.01876881,"MEAN_MOTION_DDOT":0},{"OBJECT_NAME":"STARLINK-36957","OBJECT_ID":"2026-039D","EPOCH":"2026-03-12T20:00:01.999008","MEAN_MOTION":15.81926176,"ECCENTRICITY":0.0001953,"INCLINATION":42.9993,"RA_OF_ASC_NODE":35.6383,"ARG_OF_PERICENTER":229.7751,"MEAN_ANOMALY":114.1556,"EPHEMERIS_TYPE":0,"CLASSIFICATION_TYPE":"U","NORAD_CAT_ID":67989,"ELEMENT_SET_NO":999,"REV_AT_EPOCH":338,"BSTAR":0.00067402,"MEAN_MOTION_DOT":0.00143161,"MEAN_MOTION_DDOT":0},{"OBJECT_NAME":"STARLINK-36951","OBJECT_ID":"2026-039E","EPOCH":"2026-03-12T14:00:01.999872","MEAN_MOTION":15.82022395,"ECCENTRICITY":0.00019521,"INCLINATION":42.9998,"RA_OF_ASC_NODE":37.1603,"ARG_OF_PERICENTER":288.3467,"MEAN_ANOMALY":74.2915,"EPHEMERIS_TYPE":0,"CLASSIFICATION_TYPE":"U","NORAD_CAT_ID":67990,"ELEMENT_SET_NO":999,"REV_AT_EPOCH":334,"BSTAR":-0.000232636,"MEAN_MOTION_DOT":-0.00049258,"MEAN_MOTION_DDOT":0},{"OBJECT_NAME":"STARLINK-36941","OBJECT_ID":"2026-039F","EPOCH":"2026-03-12T20:00:01.999008","MEAN_MOTION":15.72279806,"ECCENTRICITY":0.0001452,"INCLINATION":42.9992,"RA_OF_ASC_NODE":35.7178,"ARG_OF_PERICENTER":255.1572,"MEAN_ANOMALY":56.5796,"EPHEMERIS_TYPE":0,"CLASSIFICATION_TYPE":"U","NORAD_CAT_ID":67991,"ELEMENT_SET_NO":999,"REV_AT_EPOCH":338,"BSTAR":-0.015812,"MEAN_MOTION_DOT":-0.01876196,"MEAN_MOTION_DDOT":0},{"OBJECT_NAME":"STARLINK-36950","OBJECT_ID":"2026-039G","EPOCH":"2026-03-12T20:00:01.999008","MEAN_MOTION":15.77774052,"ECCENTRICITY":0.0001538,"INCLINATION":42.9994,"RA_OF_ASC_NODE":35.6245,"ARG_OF_PERICENTER":264.6407,"MEAN_ANOMALY":84.3566,"EPHEMERIS_TYPE":0,"CLASSIFICATION_TYPE":"U","NORAD_CAT_ID":67992,"ELEMENT_SET_NO":999,"REV_AT_EPOCH":338,"BSTAR":-0.012511,"MEAN_MOTION_DOT":-0.01890957,"MEAN_MOTION_DDOT":0},{"OBJECT_NAME":"STARLINK-36975","OBJECT_ID":"2026-039H","EPOCH":"2026-03-12T20:00:01.999008","MEAN_MOTION":15.79063833,"ECCENTRICITY":0.0001625,"INCLINATION":42.9996,"RA_OF_ASC_NODE":35.6037,"ARG_OF_PERICENTER":265.0476,"MEAN_ANOMALY":92.2228,"EPHEMERIS_TYPE":0,"CLASSIFICATION_TYPE":"U","NORAD_CAT_ID":67993,"ELEMENT_SET_NO":999,"REV_AT_EPOCH":338,"BSTAR":-0.011789,"MEAN_MOTION_DOT":-0.01890181,"MEAN_MOTION_DDOT":0},{"OBJECT_NAME":"STARLINK-36993","OBJECT_ID":"2026-039J","EPOCH":"2026-03-12T20:00:01.999008","MEAN_MOTION":15.81875835,"ECCENTRICITY":0.000204,"INCLINATION":42.9995,"RA_OF_ASC_NODE":35.5847,"ARG_OF_PERICENTER":256.3799,"MEAN_ANOMALY":108.9162,"EPHEMERIS_TYPE":0,"CLASSIFICATION_TYPE":"U","NORAD_CAT_ID":67994,"ELEMENT_SET_NO":999,"REV_AT_EPOCH":338,"BSTAR":0.0012752,"MEAN_MOTION_DOT":0.00274884,"MEAN_MOTION_DDOT":0},{"OBJECT_NAME":"STARLINK-36968","OBJECT_ID":"2026-039K","EPOCH":"2026-03-12T20:00:01.999008","MEAN_MOTION":15.75594698,"ECCENTRICITY":0.0001492,"INCLINATION":42.9995,"RA_OF_ASC_NODE":35.6067,"ARG_OF_PERICENTER":257.8848,"MEAN_ANOMALY":98.205,"EPHEMERIS_TYPE":0,"CLASSIFICATION_TYPE":"U","NORAD_CAT_ID":67995,"ELEMENT_SET_NO":999,"REV_AT_EPOCH":338,"BSTAR":-0.013779,"MEAN_MOTION_DOT":-0.01888474,"MEAN_MOTION_DDOT":0},{"OBJECT_NAME":"STARLINK-36979","OBJECT_ID":"2026-039L","EPOCH":"2026-03-12T20:00:01.999008","MEAN_MOTION":15.81887413,"ECCENTRICITY":0.0002677,"INCLINATION":42.9997,"RA_OF_ASC_NODE":35.5734,"ARG_OF_PERICENTER":244.1754,"MEAN_ANOMALY":125.3952,"EPHEMERIS_TYPE":0,"CLASSIFICATION_TYPE":"U","NORAD_CAT_ID":67996,"ELEMENT_SET_NO":999,"REV_AT_EPOCH":338,"BSTAR":0.0011165,"MEAN_MOTION_DOT":0.0023975,"MEAN_MOTION_DDOT":0}]
