STARLINK-36882          
1 67980U 26038V   26071.83335647 -.02325258  00000+0 -14650-1 0  9999
2 67980  97.2722  82.3352 0001375  74.5883 325.7665 15.79788342  3703
STARLINK-36874          
1 67981U 26038W   26071.83335647 -.02310247  00000+0 -14263-1 0  9992
2 67981  97.2710  82.3403 0001700  73.1384 339.7590 15.80204653  3703
STARLINK-36879          
1 67982U 26038X   26071.83335647 -.02316904  00000+0 -14048-1 0  9990
2 67982  97.2704  82.3426 0001686  63.2653 356.1586 15.80605477  3701
STARLINK-36867          
1 67983U 26038Y   26071.83335647 -.02121414  00000+0 -12666-1 0  9995
2 67983  97.2690  82.3480 0001310  77.2419 355.3026 15.81208501  3703
STARLINK-36266          
1 67984U 26038Z   26071.83335647 -.02312418  00000+0 -13896-1 0  9998
2 67984  97.2699  82.3458 0001345  89.3909 337.2732 15.80796476  3675
STARLINK-36802          
1 67985U 26038AA  26071.83335647 -.02024388  00000+0 -11956-1 0  9990
2 67985  97.2686  82.3497 0001365  55.4227  22.5241 15.81270435  3700
STARLINK-36535          
1 67986U 26039A   26071.83335647  .00284846  00000+0  13200-2 0  9990
2 67986  42.9992  35.6721 0002249 249.9442  81.1652 15.81872244  3387
STARLINK-36744          
1 67987U 26039B   26071.83335647  .00249702  00000+0  11614-2 0  9990
2 67987  42.9993  35.6608 0002328 225.6079 109.7799 15.81886433  3382
STARLINK-36734          
1 67988U 26039C   26071.83335647 -.01876881  00000+0 -15582-1 0  9995
2 67988  42.9991  35.7443 0001439 254.5235  47.2464 15.72628614  3386
STARLINK-36957          
1 67989U 26039D   26071.83335647  .00143161  00000+0  67402-3 0  9991
2 67989  42.9993  35.6383 0001953 229.7751 114.1556 15.81926176  3389
STARLINK-36951          
1 67990U 26039E   26071.58335648 -.00049258  00000+0 -23264-3 0  9998
2 67990  42.9998  37.1603 0001952 288.3467  74.2915 15.82022395  3344
STARLINK-36941          
1 67991U 26039F   26071.83335647 -.01876196  00000+0 -15812-1 0  9994
2 67991  42.9992  35.7178 0001452 255.1572  56.5796 15.72279806  3388
STARLINK-36950          
1 67992U 26039G   26071.83335647 -.01890957  00000+0 -12511-1 0  9999
2 67992  42.9994  35.6245 0001538 264.6407  84.3566 15.77774052  3384
STARLINK-36975          
1 67993U 26039H   26071.83335647 -.01890181  00000+0 -11789-1 0  9995
2 67993  42.9996  35.6037 0001625 265.0476  92.2228 15.79063833  3387
STARLINK-36993          
1 67994U 26039J   26071.83335647  .00274884  00000+0  12752-2 0  9991
2 67994  42.9995  35.5847 0002040 256.3799 108.9162 15.81875835  3386
STARLINK-36968          
1 67995U 26039K   26071.83335647 -.01888474  00000+0 -13779-1 0  9990
2 67995  42.9995  35.6067 0001492 257.8848  98.2050 15.75594698  3388
STARLINK-36979          
1 67996U 26039L   26071.83335647  .00239750  00000+0  11165-2 0  9993
2 67996  42.9997  35.5734 0002677 244.1754 125.3952 15.81887413  3382
